LANDSAT 9               
1 49260U 21088A   24141.15367647  .00001424  00000+0  32589-3 0  9991
2 49260  98.1878 211.2458 0001103  83.6915 276.4410 14.57116326140616
